     2.100          NAVIGATION                              RINEX VERSION / TYPE
fic2rin                                 12/24/2009 01:04:03 PGM / RUN BY / DATE
                                                            END OF HEADER
 4 09 12 23 16  0  0.0 -.421260483563D-03 -.187583282241D-10  .000000000000D+00
     .600000000000D+01  .414062500000D+02  .524593279987D-08  .613812118596D-01
     .231154263020D-05  .910493300762D-02  .743940472603D-05  .515359438705D+04
     .316800000000D+06  .428408384323D-07  .212961604402D+01  .819563865662D-07
     .939312570345D+00  .222843750000D+03  .577914386694D+00 -.848321050263D-08
     .875036448780D-10  .100000000000D+01  .156300000000D+04  .000000000000D+00
     .240000000000D+01  .000000000000D+00 -.605359673500D-08  .600000000000D+01
     .309606000000D+06  .400000000000D+01
 6 09 12 23 16  0  0.0  .263165682554D-03 -.795807864051D-12  .000000000000D+00
     .720000000000D+02 -.235000000000D+02  .511878464650D-08 -.774295901081D+00
    -.134855508804D-05  .581960647833D-02  .104382634163D-04  .515366758156D+04
     .316800000000D+06 -.689178705215D-07  .103018762240D+01 -.204890966415D-07
     .934003138854D+00  .166031250000D+03 -.118308275873D+01 -.835213361418D-08
     .439304013061D-10  .100000000000D+01  .156300000000D+04  .000000000000D+00
     .240000000000D+01  .000000000000D+00 -.512227416039D-08  .720000000000D+02
     .309606000000D+06  .400000000000D+01
 7 09 12 23 16  0  0.0  .550877302885D-05 -.568434188608D-12  .000000000000D+00
     .990000000000D+02  .176250000000D+02  .433875215501D-08  .171556880213D+01
     .998377799988D-06  .323753443081D-02  .659003853798D-05  .515372912407D+04
     .316800000000D+06  .204890966415D-07 -.101350349667D+01  .353902578354D-07
     .969860833614D+00  .256625000000D+03  .305870695851D+01 -.807712215884D-08
     .244295890190D-09  .100000000000D+01  .156300000000D+04  .000000000000D+00
     .240000000000D+01  .000000000000D+00 -.107102096081D-07  .990000000000D+02
     .309606000000D+06  .400000000000D+01
 8 09 12 23 16  0  0.0  .126333907247D-05  .454747350886D-12  .000000000000D+00
     .280000000000D+02  .112500000000D+02  .387694720470D-08  .112036185623D+01
     .735744833946D-06  .109945568256D-01  .620260834694D-05  .515373281288D+04
     .316800000000D+06  .651925802231D-07 -.948789327330D+00  .171363353729D-06
     .991170922819D+00  .273937500000D+03  .307435916084D+01 -.784211236974D-08
     .165364030933D-09  .100000000000D+01  .156300000000D+04  .000000000000D+00
     .240000000000D+01  .000000000000D+00 -.372529029846D-08  .280000000000D+02
     .309606000000D+06  .400000000000D+01
 9 09 12 23 16  0  0.0  .957241281867D-04  .227373675443D-11  .000000000000D+00
     .113000000000D+03  .114375000000D+02  .420803242430D-08  .928651183261D+00
     .400468707085D-06  .206348620122D-01  .650063157082D-05  .515361854935D+04
     .316800000000D+06 -.331550836563D-06 -.104602335804D+01 -.163912773132D-06
     .978674006569D+00  .268187500000D+03  .152382482583D+01 -.834034740895D-08
     .176078762959D-09  .100000000000D+01  .156300000000D+04  .000000000000D+00
     .340000000000D+01  .000000000000D+00 -.558793544769D-08  .113000000000D+03
     .309606000000D+06  .400000000000D+01
10 09 12 23 16  0  0.0 -.309920869768D-04 -.795807864051D-12  .000000000000D+00
     .300000000000D+02  .690625000000D+01  .474734060293D-08 -.156300949181D+01
     .333413481712D-06  .893385370728D-02  .543706119061D-05  .515341981125D+04
     .316800000000D+06  .141561031342D-06 -.308661738006D+01 -.931322574615D-07
     .955729565767D+00  .270593750000D+03  .631326524941D+00 -.817569769348D-08
    -.190365072327D-09  .100000000000D+01  .156300000000D+04  .000000000000D+00
     .240000000000D+01  .000000000000D+00 -.279396772385D-08  .300000000000D+02
     .309606000000D+06  .400000000000D+01
11 09 12 23 16  0  0.0 -.358042307198D-04 -.193267624127D-11  .000000000000D+00
     .800000000000D+02  .447500000000D+02  .638490881422D-08  .161596609493D+01
     .237673521042D-05  .103777290788D-01  .875443220139D-05  .515371594620D+04
     .316800000000D+06 -.221654772758D-06  .190074016107D+01  .875443220139D-07
     .888414086698D+00  .172968750000D+03  .777056720080D+00 -.897823112222D-08
     .137505727665D-09  .100000000000D+01  .156300000000D+04  .000000000000D+00
     .340000000000D+01  .000000000000D+00 -.116415321827D-07  .800000000000D+02
     .309606000000D+06  .400000000000D+01
12 09 12 23 16  0  0.0 -.172675121576D-03  .511590769747D-11  .000000000000D+00
     .980000000000D+02 -.550312500000D+02  .448054377549D-08  .183898335670D+01
    -.301189720631D-05  .324717932381D-02  .604242086411D-05  .515378655243D+04
     .316800000000D+06  .670552253723D-07  .395148890166D-01  .130385160446D-07
     .969437707966D+00  .269406250000D+03 -.562277078332D+00 -.807569352791D-08
    -.414302971667D-10  .100000000000D+01  .156300000000D+04  .000000000000D+00
     .240000000000D+01  .000000000000D+00 -.121071934700D-07  .980000000000D+02
     .309606000000D+06  .400000000000D+01
13 09 12 23 16  0  0.0  .306604895741D-03  .000000000000D+00  .000000000000D+00
     .800000000000D+02  .812500000000D+00  .360657879991D-08 -.213198015474D+01
     .596046447754D-07  .396620691754D-02  .915862619877D-05  .515361425591D+04
     .316800000000D+06  .856816768646D-07 -.199865085576D+01  .260770320892D-07
     .993847834689D+00  .220718750000D+03  .164511052006D+01 -.760424531877D-08
    -.141077305007D-09  .100000000000D+01  .156300000000D+04  .000000000000D+00
     .240000000000D+01  .000000000000D+00 -.111758708954D-07  .800000000000D+02
     .309606000000D+06  .400000000000D+01
14 09 12 23 16  0  0.0 -.865478068590D-05  .466116034659D-11  .000000000000D+00
     .260000000000D+02  .156875000000D+02  .372586948313D-08 -.225873562214D+01
     .860542058945D-06  .507384585217D-02  .866129994392D-05  .515368944550D+04
     .316800000000D+06  .521540641785D-07 -.201947815713D+01 -.633299350739D-07
     .987223936194D+00  .228500000000D+03 -.209803594659D+01 -.760674542291D-08
    -.625026034843D-10  .100000000000D+01  .156300000000D+04  .000000000000D+00
     .240000000000D+01  .000000000000D+00 -.884756445885D-08  .260000000000D+02
     .309606000000D+06  .400000000000D+01
15 09 12 23 16  0  0.0 -.316874589771D-03  .147792889038D-11  .000000000000D+00
     .590000000000D+02  .971875000000D+01  .447375777854D-08 -.208886026692D+01
     .527128577232D-06  .219872267917D-02  .843033194542D-05  .515370699120D+04
     .316800000000D+06 -.242143869400D-07 -.207860665509D+01  .335276126862D-07
     .955037075939D+00  .216718750000D+03 -.413638281672D+00 -.809247994141D-08
    -.689314426998D-10  .100000000000D+01  .156300000000D+04  .000000000000D+00
     .240000000000D+01  .000000000000D+00 -.977888703346D-08  .590000000000D+02
     .309606000000D+06  .400000000000D+01
16 09 12 23 16  0  0.0 -.226036645472D-04 -.420641299570D-11  .000000000000D+00
     .870000000000D+02 -.564375000000D+02  .446018578464D-08 -.554725503984D+00
    -.302307307720D-05  .544732506387D-02  .628083944321D-05  .515367803001D+04
     .316800000000D+06  .260770320892D-07  .567410507611D-01 -.949949026108D-07
     .970754262554D+00  .260781250000D+03 -.273663943567D+00 -.815141096756D-08
    -.175007289756D-10  .100000000000D+01  .156300000000D+04  .000000000000D+00
     .240000000000D+01  .000000000000D+00 -.977888703346D-08  .870000000000D+02
     .309606000000D+06  .400000000000D+01
18 09 12 23 16  0  0.0  .367388129234D-04  .272848410532D-11  .000000000000D+00
     .101000000000D+03  .378125000000D+01  .527450541861D-08 -.361775190806D+00
     .225380063057D-06  .109004715923D-01  .571645796299D-05  .515365439606D+04
     .316800000000D+06 -.186264514923D-08 -.308434381957D+01  .132247805595D-06
     .939727696756D+00  .259125000000D+03 -.235656138273D+01 -.867178978628D-08
    -.339299847486D-09  .100000000000D+01  .156300000000D+04  .000000000000D+00
     .240000000000D+01  .000000000000D+00 -.107102096081D-07  .101000000000D+03
     .309606000000D+06  .400000000000D+01
19 09 12 23 16  0  0.0 -.551156699657D-05 -.204636307899D-11  .000000000000D+00
     .170000000000D+02 -.173437500000D+02  .458304804520D-08 -.241458317731D+01
    -.882893800735D-06  .597680441570D-02  .109262764454D-04  .515368560219D+04
     .316800000000D+06 -.122934579849D-06  .115475718151D+01 -.428408384323D-07
     .957384573767D+00  .168687500000D+03 -.186154457440D+00 -.792104422900D-08
     .421446126351D-10  .100000000000D+01  .156300000000D+04  .000000000000D+00
     .240000000000D+01  .000000000000D+00 -.144354999065D-07  .170000000000D+02
     .309606000000D+06  .400000000000D+01
20 09 12 23 16  0  0.0  .648461282253D-04 -.795807864051D-12  .000000000000D+00
     .680000000000D+02  .115312500000D+02  .528593446610D-08 -.194245140507D+00
     .571832060814D-06  .413420924451D-02  .542961061001D-05  .515371131897D+04
     .316800000000D+06 -.409781932831D-07 -.313822281741D+01  .540167093277D-07
     .939492643857D+00  .262406250000D+03  .128337580674D+01 -.858178603726D-08
    -.269654089318D-09  .100000000000D+01  .156300000000D+04  .000000000000D+00
     .240000000000D+01  .000000000000D+00 -.745058059692D-08  .680000000000D+02
     .309606000000D+06  .400000000000D+01
21 09 12 23 16  0  0.0 -.293673947453D-04 -.238742359215D-11  .000000000000D+00
     .340000000000D+02  .516562500000D+02  .543844081860D-08  .806376155569D+00
     .293366611004D-05  .157634534407D-01  .704266130924D-05  .515372418785D+04
     .316800000000D+06 -.113621354103D-06  .214139758162D+01  .214204192162D-06
     .932860981656D+00  .229468750000D+03 -.253957194144D+01 -.867607567909D-08
    -.721458623076D-10  .100000000000D+01  .156300000000D+04  .000000000000D+00
     .240000000000D+01  .000000000000D+00 -.121071934700D-07  .340000000000D+02
     .309606000000D+06  .400000000000D+01
